[{"OBJECT_NAME":"STARLINK-11641 [DTC]","OBJECT_ID":"2025-053D","EPOCH":"2025-09-14T16:39:33.766848","MEAN_MOTION":15.70841144,"ECCENTRICITY":0.00013088,"INCLINATION":42.9976,"RA_OF_ASC_NODE":92.7419,"ARG_OF_PERICENTER":280.548,"MEAN_ANOMALY":79.524,"EPHEMERIS_TYPE":0,"CLASSIFICATION_TYPE":"U","NORAD_CAT_ID":63268,"ELEMENT_SET_NO":999,"REV_AT_EPOCH":2999,"BSTAR":0.0012412902,"MEAN_MOTION_DOT":0.00161974,"MEAN_MOTION_DDOT":0},{"OBJECT_NAME":"STARLINK-11638 [DTC]","OBJECT_ID":"2025-053E","EPOCH":"2025-09-14T16:47:10.939488","MEAN_MOTION":15.7089745,"ECCENTRICITY":6.015e-5,"INCLINATION":42.9967,"RA_OF_ASC_NODE":92.7854,"ARG_OF_PERICENTER":244.4959,"MEAN_ANOMALY":115.5847,"EPHEMERIS_TYPE":0,"CLASSIFICATION_TYPE":"U","NORAD_CAT_ID":63269,"ELEMENT_SET_NO":999,"REV_AT_EPOCH":2999,"BSTAR":0.0013080881,"MEAN_MOTION_DOT":0.00171314,"MEAN_MOTION_DDOT":0},{"OBJECT_NAME":"STARLINK-11614 [DTC]","OBJECT_ID":"2025-053F","EPOCH":"2025-09-15T05:45:32.149152","MEAN_MOTION":15.7096252,"ECCENTRICITY":0.00014475,"INCLINATION":43.0026,"RA_OF_ASC_NODE":89.9759,"ARG_OF_PERICENTER":286.0147,"MEAN_ANOMALY":74.0561,"EPHEMERIS_TYPE":0,"CLASSIFICATION_TYPE":"U","NORAD_CAT_ID":63270,"ELEMENT_SET_NO":999,"REV_AT_EPOCH":3007,"BSTAR":0.0029224755,"MEAN_MOTION_DOT":0.00394953,"MEAN_MOTION_DDOT":0},{"OBJECT_NAME":"STARLINK-11620 [DTC]","OBJECT_ID":"2025-053G","EPOCH":"2025-09-15T06:08:28.216896","MEAN_MOTION":15.70952785,"ECCENTRICITY":0.00019527,"INCLINATION":43.0013,"RA_OF_ASC_NODE":90.1069,"ARG_OF_PERICENTER":277.4822,"MEAN_ANOMALY":82.5823,"EPHEMERIS_TYPE":0,"CLASSIFICATION_TYPE":"U","NORAD_CAT_ID":63271,"ELEMENT_SET_NO":999,"REV_AT_EPOCH":3007,"BSTAR":0.0031159819,"MEAN_MOTION_DOT":0.00422367,"MEAN_MOTION_DDOT":0},{"OBJECT_NAME":"STARLINK-11619 [DTC]","OBJECT_ID":"2025-053H","EPOCH":"2025-09-15T05:30:14.725440","MEAN_MOTION":15.71023716,"ECCENTRICITY":0.00017448,"INCLINATION":42.9989,"RA_OF_ASC_NODE":89.8905,"ARG_OF_PERICENTER":287.6308,"MEAN_ANOMALY":72.4369,"EPHEMERIS_TYPE":0,"CLASSIFICATION_TYPE":"U","NORAD_CAT_ID":63272,"ELEMENT_SET_NO":999,"REV_AT_EPOCH":3007,"BSTAR":0.0035841334,"MEAN_MOTION_DOT":0.00491482,"MEAN_MOTION_DDOT":0},{"OBJECT_NAME":"STARLINK-11621 [DTC]","OBJECT_ID":"2025-053J","EPOCH":"2025-09-14T05:50:58.075872","MEAN_MOTION":15.7090461,"ECCENTRICITY":0.00030464,"INCLINATION":42.9996,"RA_OF_ASC_NODE":95.3826,"ARG_OF_PERICENTER":280.3791,"MEAN_ANOMALY":79.6733,"EPHEMERIS_TYPE":0,"CLASSIFICATION_TYPE":"U","NORAD_CAT_ID":63273,"ELEMENT_SET_NO":999,"REV_AT_EPOCH":2992,"BSTAR":0.0013593004,"MEAN_MOTION_DOT":0.00178262,"MEAN_MOTION_DDOT":0},{"OBJECT_NAME":"STARLINK-11615 [DTC]","OBJECT_ID":"2025-053K","EPOCH":"2025-09-15T05:37:53.779872","MEAN_MOTION":15.71188381,"ECCENTRICITY":0.00020255,"INCLINATION":43.0002,"RA_OF_ASC_NODE":89.9347,"ARG_OF_PERICENTER":307.2516,"MEAN_ANOMALY":52.8167,"EPHEMERIS_TYPE":0,"CLASSIFICATION_TYPE":"U","NORAD_CAT_ID":63274,"ELEMENT_SET_NO":999,"REV_AT_EPOCH":3007,"BSTAR":0.0032339533,"MEAN_MOTION_DOT":0.00443896,"MEAN_MOTION_DDOT":0},{"OBJECT_NAME":"STARLINK-11608 [DTC]","OBJECT_ID":"2025-053L","EPOCH":"2025-09-14T16:54:49.655232","MEAN_MOTION":15.70880652,"ECCENTRICITY":6.803e-5,"INCLINATION":42.9991,"RA_OF_ASC_NODE":92.8305,"ARG_OF_PERICENTER":246.8862,"MEAN_ANOMALY":113.1934,"EPHEMERIS_TYPE":0,"CLASSIFICATION_TYPE":"U","NORAD_CAT_ID":63275,"ELEMENT_SET_NO":999,"REV_AT_EPOCH":2998,"BSTAR":0.00090622866,"MEAN_MOTION_DOT":0.00117692,"MEAN_MOTION_DDOT":0},{"OBJECT_NAME":"STARLINK-11623 [DTC]","OBJECT_ID":"2025-053M","EPOCH":"2025-09-15T06:00:49.959936","MEAN_MOTION":15.71004335,"ECCENTRICITY":8.081e-5,"INCLINATION":42.9998,"RA_OF_ASC_NODE":90.0638,"ARG_OF_PERICENTER":325.807,"MEAN_ANOMALY":34.2746,"EPHEMERIS_TYPE":0,"CLASSIFICATION_TYPE":"U","NORAD_CAT_ID":63276,"ELEMENT_SET_NO":999,"REV_AT_EPOCH":3006,"BSTAR":0.0041284374,"MEAN_MOTION_DOT":0.00571357,"MEAN_MOTION_DDOT":0},{"OBJECT_NAME":"STARLINK-11612 [DTC]","OBJECT_ID":"2025-053N","EPOCH":"2025-09-15T05:53:10.352544","MEAN_MOTION":15.710074,"ECCENTRICITY":0.00031067,"INCLINATION":43.0036,"RA_OF_ASC_NODE":90.0205,"ARG_OF_PERICENTER":271.4934,"MEAN_ANOMALY":88.5578,"EPHEMERIS_TYPE":0,"CLASSIFICATION_TYPE":"U","NORAD_CAT_ID":63277,"ELEMENT_SET_NO":999,"REV_AT_EPOCH":3007,"BSTAR":0.0027979317,"MEAN_MOTION_DOT":0.00378036,"MEAN_MOTION_DDOT":0},{"OBJECT_NAME":"STARLINK-33660","OBJECT_ID":"2025-053P","EPOCH":"2025-09-15T01:58:33.864096","MEAN_MOTION":15.27589553,"ECCENTRICITY":0.00014162,"INCLINATION":43.0027,"RA_OF_ASC_NODE":153.7712,"ARG_OF_PERICENTER":276.0811,"MEAN_ANOMALY":83.9879,"EPHEMERIS_TYPE":0,"CLASSIFICATION_TYPE":"U","NORAD_CAT_ID":63278,"ELEMENT_SET_NO":999,"REV_AT_EPOCH":2933,"BSTAR":0.00064272276,"MEAN_MOTION_DOT":0.00017471,"MEAN_MOTION_DDOT":0},{"OBJECT_NAME":"STARLINK-33611","OBJECT_ID":"2025-053Q","EPOCH":"2025-09-14T00:04:38.270208","MEAN_MOTION":15.27612665,"ECCENTRICITY":0.00017692,"INCLINATION":42.9991,"RA_OF_ASC_NODE":155.9596,"ARG_OF_PERICENTER":121.3733,"MEAN_ANOMALY":238.7292,"EPHEMERIS_TYPE":0,"CLASSIFICATION_TYPE":"U","NORAD_CAT_ID":63279,"ELEMENT_SET_NO":999,"REV_AT_EPOCH":2932,"BSTAR":0.00085652407,"MEAN_MOTION_DOT":0.00023406,"MEAN_MOTION_DDOT":0},{"OBJECT_NAME":"STARLINK-33646","OBJECT_ID":"2025-053R","EPOCH":"2025-09-15T02:40:54.509664","MEAN_MOTION":15.27593741,"ECCENTRICITY":0.00020071,"INCLINATION":42.9996,"RA_OF_ASC_NODE":153.1249,"ARG_OF_PERICENTER":264.0796,"MEAN_ANOMALY":95.9827,"EPHEMERIS_TYPE":0,"CLASSIFICATION_TYPE":"U","NORAD_CAT_ID":63280,"ELEMENT_SET_NO":999,"REV_AT_EPOCH":2934,"BSTAR":0.00096529291,"MEAN_MOTION_DOT":0.00026407,"MEAN_MOTION_DDOT":0},{"OBJECT_NAME":"STARLINK-33665","OBJECT_ID":"2025-053S","EPOCH":"2025-09-15T02:09:27.734112","MEAN_MOTION":15.27586529,"ECCENTRICITY":9.42e-5,"INCLINATION":42.9965,"RA_OF_ASC_NODE":152.9582,"ARG_OF_PERICENTER":61.7454,"MEAN_ANOMALY":298.3492,"EPHEMERIS_TYPE":0,"CLASSIFICATION_TYPE":"U","NORAD_CAT_ID":63281,"ELEMENT_SET_NO":999,"REV_AT_EPOCH":2934,"BSTAR":0.00081570084,"MEAN_MOTION_DOT":0.00022256,"MEAN_MOTION_DDOT":0},{"OBJECT_NAME":"STARLINK-33603","OBJECT_ID":"2025-053T","EPOCH":"2025-09-15T00:29:57.167520","MEAN_MOTION":15.2761803,"ECCENTRICITY":8.068e-5,"INCLINATION":43.0025,"RA_OF_ASC_NODE":154.1492,"ARG_OF_PERICENTER":274.4822,"MEAN_ANOMALY":85.5937,"EPHEMERIS_TYPE":0,"CLASSIFICATION_TYPE":"U","NORAD_CAT_ID":63282,"ELEMENT_SET_NO":999,"REV_AT_EPOCH":2932,"BSTAR":0.0016439996,"MEAN_MOTION_DOT":0.00045308,"MEAN_MOTION_DDOT":0},{"OBJECT_NAME":"STARLINK-33669","OBJECT_ID":"2025-053U","EPOCH":"2025-09-15T02:20:32.709984","MEAN_MOTION":15.27592618,"ECCENTRICITY":0.00015884,"INCLINATION":43.0013,"RA_OF_ASC_NODE":153.0194,"ARG_OF_PERICENTER":270.1713,"MEAN_ANOMALY":89.8957,"EPHEMERIS_TYPE":0,"CLASSIFICATION_TYPE":"U","NORAD_CAT_ID":63283,"ELEMENT_SET_NO":999,"REV_AT_EPOCH":2934,"BSTAR":0.00084802621,"MEAN_MOTION_DOT":0.00023156,"MEAN_MOTION_DDOT":0}]
