STARLINK-11641 [DTC]    
1 63268U 25053D   25257.69414082  .00161974  00000+0  12413-2 0  9995
2 63268  42.9976  92.7419 0001308 280.5480  79.5240 15.70841144 29996
STARLINK-11638 [DTC]    
1 63269U 25053E   25257.69943217  .00171314  00000+0  13081-2 0  9994
2 63269  42.9967  92.7854 0000601 244.4959 115.5847 15.70897450 29990
STARLINK-11614 [DTC]    
1 63270U 25053F   25258.23995543  .00394953  00000+0  29225-2 0  9999
2 63270  43.0026  89.9759 0001447 286.0147  74.0561 15.70962520 30076
STARLINK-11620 [DTC]    
1 63271U 25053G   25258.25588214  .00422367  00000+0  31160-2 0  9997
2 63271  43.0013  90.1069 0001952 277.4822  82.5823 15.70952785 30073
STARLINK-11619 [DTC]    
1 63272U 25053H   25258.22933710  .00491482  00000+0  35841-2 0  9994
2 63272  42.9989  89.8905 0001744 287.6308  72.4369 15.71023716 30076
STARLINK-11621 [DTC]    
1 63273U 25053J   25257.24372773  .00178262  00000+0  13593-2 0  9990
2 63273  42.9996  95.3826 0003046 280.3791  79.6733 15.70904610 29928
STARLINK-11615 [DTC]    
1 63274U 25053K   25258.23465023  .00443896  00000+0  32340-2 0  9991
2 63274  43.0002  89.9347 0002025 307.2516  52.8167 15.71188381 30078
STARLINK-11608 [DTC]    
1 63275U 25053L   25257.70474138  .00117692  00000+0  90623-3 0  9991
2 63275  42.9991  92.8305 0000680 246.8862 113.1934 15.70880652 29988
STARLINK-11623 [DTC]    
1 63276U 25053M   25258.25057824  .00571357  00000+0  41284-2 0  9992
2 63276  42.9998  90.0638 0000808 325.8070  34.2746 15.71004335 30068
STARLINK-11612 [DTC]    
1 63277U 25053N   25258.24525871  .00378036  00000+0  27979-2 0  9998
2 63277  43.0036  90.0205 0003106 271.4934  88.5578 15.71007400 30075
STARLINK-33660          
1 63278U 25053P   25258.08233639  .00017471  00000+0  64272-3 0  9990
2 63278  43.0027 153.7712 0001416 276.0811  83.9879 15.27589553 29338
STARLINK-33611          
1 63279U 25053Q   25257.00322072  .00023406  00000+0  85652-3 0  9992
2 63279  42.9991 155.9596 0001769 121.3733 238.7292 15.27612665 29326
STARLINK-33646          
1 63280U 25053R   25258.11174201  .00026407  00000+0  96529-3 0  9995
2 63280  42.9996 153.1249 0002007 264.0796  95.9827 15.27593741 29340
STARLINK-33665          
1 63281U 25053S   25258.08990433  .00022256  00000+0  81570-3 0  9993
2 63281  42.9965 152.9582 0000942  61.7454 298.3492 15.27586529 29346
STARLINK-33603          
1 63282U 25053T   25258.02080055  .00045308  00000+0  16440-2 0  9994
2 63282  43.0025 154.1492 0000806 274.4822  85.5937 15.27618030 29322
STARLINK-33669          
1 63283U 25053U   25258.09760081  .00023156  00000+0  84803-3 0  9992
2 63283  43.0013 153.0194 0001588 270.1713  89.8957 15.27592618 29341
